{
    "links": {
        "self": "http://www.neowsapp.com/rest/v1/neo/54054537?api_key=iIulBulltgU6a56xZRHN4H3l9WmuAYTsLGpBGhQ2"
    },
    "id": "54054537",
    "neo_reference_id": "54054537",
    "name": "(2020 RD10)",
    "designation": "2020 RD10",
    "nasa_jpl_url": "http://ssd.jpl.nasa.gov/sbdb.cgi?sstr=54054537",
    "absolute_magnitude_h": 24.411,
    "estimated_diameter": {
        "kilometers": {
            "estimated_diameter_min": 0.034862215,
            "estimated_diameter_max": 0.0779542825
        },
        "meters": {
            "estimated_diameter_min": 34.8622149753,
            "estimated_diameter_max": 77.9542825311
        },
        "miles": {
            "estimated_diameter_min": 0.0216623694,
            "estimated_diameter_max": 0.0484385305
        },
        "feet": {
            "estimated_diameter_min": 114.3773493797,
            "estimated_diameter_max": 255.7555282993
        }
    },
    "is_potentially_hazardous_asteroid": false,
    "close_approach_data": [
        {
            "close_approach_date": "1900-04-27",
            "close_approach_date_full": "1900-Apr-27 02:25",
            "epoch_date_close_approach": -2198957700000,
            "relative_velocity": {
                "kilometers_per_second": "17.2953601796",
                "kilometers_per_hour": "62263.2966464632",
                "miles_per_hour": "38687.9911856871"
            },
            "miss_distance": {
                "astronomical": "0.2028780364",
                "lunar": "78.9195561596",
                "kilometers": "30350122.115222468",
                "miles": "18858691.3932593384"
            },
            "orbiting_body": "Earth"
        },
        {
            "close_approach_date": "2020-08-12",
            "close_approach_date_full": "2020-Aug-12 10:50",
            "epoch_date_close_approach": 1597229400000,
            "relative_velocity": {
                "kilometers_per_second": "12.1871508574",
                "kilometers_per_hour": "43873.7430867422",
                "miles_per_hour": "27261.4377529816"
            },
            "miss_distance": {
                "astronomical": "0.0679151095",
                "lunar": "26.4189775955",
                "kilometers": "10159955.722016765",
                "miles": "6313103.743150757"
            },
            "orbiting_body": "Earth"
        },
        {
            "close_approach_date": "2025-04-14",
            "close_approach_date_full": "2025-Apr-14 20:03",
            "epoch_date_close_approach": 1744660980000,
            "relative_velocity": {
                "kilometers_per_second": "2.8526034244",
                "kilometers_per_hour": "10269.372327987",
                "miles_per_hour": "6380.9886001317"
            },
            "miss_distance": {
                "astronomical": "1.7083055786",
                "lunar": "664.5308700754",
                "kilometers": "255558875.867677582",
                "miles": "158796921.9530593516"
            },
            "orbiting_body": "Juptr"
        }
    ],
    "orbital_data": {
        "orbit_id": "4",
        "orbit_determination_date": "2020-10-27 07:14:48",
        "first_observation_date": "2020-09-12",
        "last_observation_date": "2020-10-15",
        "data_arc_in_days": 33,
        "observations_used": 13,
        "orbit_uncertainty": "7",
        "minimum_orbit_intersection": ".00504373",
        "jupiter_tisserand_invariant": "3.432",
        "epoch_osculation": "2459000.5",
        "eccentricity": ".57808879183808",
        "semi_major_axis": "2.191115985994863",
        "inclination": "3.533916062753351",
        "ascending_node_longitude": "60.55098081764203",
        "orbital_period": "1184.667510168731",
        "perihelion_distance": ".9244563928739891",
        "perihelion_argument": "215.2428874619773",
        "aphelion_distance": "3.457775579115737",
        "perihelion_time": "2459041.165581327177",
        "mean_anomaly": "347.6424320308247",
        "mean_motion": ".3038827324206143",
        "equinox": "J2000",
        "orbit_class": {
            "orbit_class_type": "APO",
            "orbit_class_description": "Near-Earth asteroid orbits which cross the Earth’s orbit similar to that of 1862 Apollo",
            "orbit_class_range": "a (semi-major axis) > 1.0 AU; q (perihelion) < 1.017 AU"
        }
    },
    "is_sentry_object": false
}